SL-3 R/B                
1 19046U 88032B   19014.17515894  .00000579  00000-0  47364-4 0  9995
2 19046  97.4572  51.7965 0038320 174.7909 185.3723 15.02530466659126
SL-16 R/B               
1 19120U 88039B   19014.01886494 -.00000127  00000-0 -37641-4 0  9993
2 19120  71.0122 188.2048 0021057  19.6436 340.5496 14.19191778588081
COSMOS 1953             
1 19210U 88050A   19014.07643704 -.00000176  00000-0 -14200-4 0  9997
2 19210  82.5155 194.8222 0015103  95.8963 264.3986 15.05695179664483
SL-8 R/B                
1 19257U 88053B   19013.93886514  .00000062  00000-0  29369-4 0  9997
2 19257  74.0476 238.0250 0020666 343.1433 115.3236 14.37425810601211
COSMOS 1975             
1 19573U 88093A   19014.13997869 -.00000120  00000-0 -10628-4 0  9996
2 19573  82.5210 148.0470 0015599 133.3195 226.9335 15.04608363646409
SL-14 R/B               
1 19574U 88093B   19014.46986333  .00000064  00000-0  48788-5 0  9991
2 19574  82.5333 326.2507 0022188  20.5198 118.4485 14.83286206634872
SL-16 R/B               
1 19650U 88102B   19014.12271644 -.00000235  00000-0 -95188-4 0  9999
2 19650  70.9974 244.0483 0013339  17.4874 342.6706 14.15775759557516
INTERCOSMOS 24          
1 20261U 89080A   19013.80459564  .00000214  00000-0  60945-4 0  9996
2 20261  82.6016 357.1725 1202774 209.1094 143.7496 12.56030092338639
SL-14 R/B               
1 20262U 89080C   19013.78741754  .00000046  00000-0  72682-5 0  9994
2 20262  82.5922  47.4343 1237505  24.3340 341.1379 12.48909974333567
DELTA 1 R/B             
1 20323U 89089B   19013.71567417  .00000026  00000-0  15616-4 0  9997
2 20323  97.0838 238.8676 0073242  70.8701 290.0407 14.48285767538020
DELTA 2 R/B(1)          
1 20453U 90008B   19013.64596419  .00000992  00000-0  57693-4 0  9993
2 20453  35.6270  85.1765 0284839 280.4170  76.4564 14.84643998533736
COSMOS 2058             
1 20465U 90010A   19014.20134305  .00000143  00000-0  98318-5 0  9992
2 20465  82.4883  53.8926 0016309 149.3540 210.8639 14.97816648571556
SL-14 R/B               
1 20466U 90010B   19014.09529804  .00000069  00000-0  58872-5 0  9990
2 20466  82.5020 193.7219 0019156 245.1755 114.7466 14.81344166562752
SL-14 R/B               
1 20511U 90018B   19013.88911829  .00000062  00000-0  50434-5 0  9996
2 20511  82.5243 137.9803 0018156  29.7283  89.7031 14.80001274557213
HST                     
1 20580U 90037B   19014.54483948  .00000361  00000-0  11023-4 0  9995
2 20580  28.4684 157.7868 0002507 255.3545 189.6496 15.09158167377423
SL-16 R/B               
1 20625U 90046B   19014.43236432 -.00000305  00000-0 -13334-3 0  9993
2 20625  70.9974  19.6915 0016253 305.6936  54.2673 14.14636762479325
COSMOS 2084             
1 20663U 90055A   19014.50037372 -.00000042  00000-0  14615-4 0  9996
2 20663  62.7940 104.1464 0098365 148.8541 211.8435 14.91930878545782
SL-6 R/B(2)             
1 20666U 90055D   19013.57148307 -.00000114  00000-0  76110-5 0  9995
2 20666  62.7862  24.7822 0065528 173.8285 186.3631 14.92206174547569
SL-8 R/B                
1 20775U 90078B   19014.47976525  .00002335  00000-0  11367-3 0  9999
2 20775  82.9288 294.9103 0580117   3.8686 356.6698 14.32810763431232
SL-8 R/B                
1 21088U 91006B   19013.95212167  .00000054  00000-0  39233-4 0  9995
2 21088  82.9440 312.1975 0023177 145.3701 285.2348 13.77107746404572
OKEAN-3                 
1 21397U 91039A   19014.17619121  .00000148  00000-0  11687-4 0  9997
2 21397  82.5233 311.1609 0019357 108.8107 251.5215 14.92754423495705
COSMOS 2151             
1 21422U 91042A   19013.71831842  .00000136  00000-0  10856-4 0  9999
2 21422  82.4996  58.6864 0014567 166.4097 193.7518 14.92013961473233
SL-14 R/B               
1 21423U 91042B   19013.85983976  .00000067  00000-0  58467-5 0  9995
2 21423  82.4950 143.4465 0018120 160.2711 199.9207 14.79752390487710
ERS-1                   
1 21574U 91050A   19013.84621674  .00000018  00000-0  20442-4 0  9991
2 21574  98.5313 324.1538 0033775  38.9892 321.3721 14.37676838440314
ARIANE 40 R/B           
1 21610U 91050F   19013.80938314 -.00000025  00000-0  61889-5 0  9990
2 21610  98.5301  81.3693 0003634  39.0393  70.2498 14.40860891443003
INTERCOSMOS 25          
1 21819U 91086A   19013.76597043 -.00000506  00000-0 -10399-3 0  9998
2 21819  82.5878  78.0337 1516543 301.3539  44.7734 12.04932512181589
SL-14 R/B               
1 21820U 91086B   19013.89105122  .00000177  00000-0  29318-4 0  9991
2 21820  82.5619 138.8532 1576398 152.1935 217.3307 11.93428837175452
SL-8 R/B                
1 21876U 92008B   19013.75197958  .00000068  00000-0  55246-4 0  9998
2 21876  82.9257  49.4345 0033801 225.8533 230.4089 13.75630982350289
SL-8 R/B                
1 21938U 92020B   19013.91093936  .00000039  00000-0  24338-4 0  9996
2 21938  82.9314 293.0305 0030000  28.1967  40.7043 13.75262903342128
SL-16 R/B               
1 22220U 92076B   19013.96120677  .00000026  00000-0  36891-4 0  9993
2 22220  71.0004 287.2447 0010874 121.3538 311.6568 14.16437629351977
SL-16 R/B               
1 22285U 92093B   19014.15861963  .00000226  00000-0  14141-3 0  9990
2 22285  71.0219  84.0220 0005617 309.3261  50.7363 14.15027595344015
COSMOS 2228             
1 22286U 92094A   19014.52389592  .00000155  00000-0  14113-4 0  9997
2 22286  82.5192 190.4730 0021419  11.9746 348.1976 14.88005132408190
SL-16 R/B               
1 22566U 93016B   19013.94519020 -.00000052  00000-0 -20037-5 0  9990
2 22566  71.0091 298.3536 0011585 326.3688  33.6698 14.14960668332708
COSMOS 2242             
1 22626U 93024A   19013.91413499  .00000134  00000-0  11921-4 0  9996
2 22626  82.5204 218.9579 0019351  13.9851 346.1898 14.87866957391450
SL-16 R/B               
1 22803U 93059B   19014.48880820 -.00000253  00000-0 -10231-3 0  9996
2 22803  70.9912 115.0168 0019147 232.9050 127.0324 14.16802642309915
ARIANE 40 R/B           
1 22830U 93061H   19014.11152819 -.00000060  00000-0 -53876-5 0  9999
2 22830  98.8364  51.3269 0011587  49.2581 310.9606 14.31430361320637
COSMOS 2278             
1 23087U 94023A   19013.93151755  .00000313  00000-0  19040-3 0  9992
2 23087  71.0520 235.6234 0007315  48.9806 311.1947 14.13780468275623
SL-16 R/B               
1 23088U 94023B   19013.84588539  .00000220  00000-0  13923-3 0  9998
2 23088  70.9983 153.8257 0005191 290.7039  69.3526 14.14670563276683
SL-16 R/B               
1 23343U 94074B   19014.21510289  .00000008  00000-0  86018-5 0  9998
2 23343  98.0766  64.3941 0007517  33.8873  10.8827 14.76760859301847
SL-16 R/B               
1 23405U 94077B   19013.63187268 -.00000176  00000-0 -66065-4 0  9999
2 23405  70.9829  85.5248 0003281 217.3537 142.7358 14.15208532246671
ERS-2                   
1 23560U 95021A   19014.31946674  .00000740  00000-0  36023-4 0  9997
2 23560  98.5115  93.8875 0004419 133.6715 226.4885 15.22233647262999
ARIANE 40+ R/B          
1 23561U 95021B   19014.17295416  .00000015  00000-0  20343-4 0  9996
2 23561  98.7806  38.5847 0006833   4.2182  46.3446 14.37904216244025
SL-16 R/B               
1 23705U 95058B   19014.12575599 -.00000039  00000-0  41221-5 0  9990
2 23705  71.0221 260.6648 0011099 149.5436 210.6334 14.15122912198663
SL-16 R/B               
1 24298U 96051B   19014.19916997 -.00000090  00000-0 -22368-4 0  9998
2 24298  70.8267 287.6944 0012982  39.9998 320.2076 14.12392179153161
ORBVIEW 2 (SEASTAR)     
1 24883U 97037A   19013.91545070  .00000002  00000-0  16702-4 0  9998
2 24883  98.5740 126.0403 0002283 177.1214 182.9984 14.33486053134134
SL-16 R/B               
1 25400U 98043G   19013.94884314 -.00000021  00000-0  90608-5 0  9992
2 25400  98.5578 315.9842 0010878  56.8662 303.3560 14.25436422 67099
SL-16 R/B               
1 25407U 98045B   19014.19237098 -.00000123  00000-0 -38093-4 0  9993
2 25407  71.0111 270.9566 0006177  35.3024 324.8507 14.15778794 57716
ISS (ZARYA)             
1 25544U 98067A   19014.61761987  .00000532  00000-0  15440-4 0  9998
2 25544  51.6422  45.0727 0002411 287.9740 218.8626 15.53760851151395
SL-8 R/B                
1 25723U 99022C   19014.18566104  .00006232  00000-0  73122-4 0  9999
2 25723  48.4152 315.8685 0007613 307.2631  52.7622 15.62809686 96347
CZ-4B R/B               
1 25732U 99025C   19014.09815122 -.00000027  00000-0  95110-5 0  9998
2 25732  98.9866  32.8908 0036433 252.0463 143.9225 14.17658565 18236
OKEAN-O                 
1 25860U 99039A   19014.09290762  .00000025  00000-0  11326-4 0  9995
2 25860  98.2250  18.4843 0001865  91.0961 269.0461 14.76585322 48815
SL-16 R/B               
1 25861U 99039B   19014.04453549  .00000022  00000-0  10517-4 0  9993
2 25861  98.1752   1.8289 0016406  33.6192   8.4799 14.78512544 50862
TERRA                   
1 25994U 99068A   19014.20490542 -.00000055  00000-0 -22534-5 0  9995
2 25994  98.2088  91.0004 0001195 102.8738 257.2600 14.57114603 14554
ENVISAT                 
1 27386U 02009A   19014.51673144 -.00000016  00000-0  83587-5 0  9997
2 27386  98.1638  43.3655 0001196  87.8532  80.6490 14.37938910883897
IDEFIX & ARIANE 42P R/B 
1 27422U 02021B   19014.45325765 -.00000017  00000-0  96419-5 0  9997
2 27422  98.2810 354.2347 0011784 334.4720  25.5880 14.29267399868999
AQUA                    
1 27424U 02022A   19013.96412250  .00000040  00000-0  18996-4 0  9999
2 27424  98.2186 317.0474 0002348 122.6944 313.7482 14.57111611888073
CZ-4B R/B               
1 27432U 02024C   19013.92354135 -.00000022  00000-0  12446-4 0  9998
2 27432  99.0565   3.0455 0050038 204.2765 208.1084 14.14074492860084
MIDORI II (ADEOS-II)    
1 27597U 02056A   19013.85809356  .00000036  00000-0  31987-4 0  9992
2 27597  98.4519 331.5977 0002132  81.6945 278.4478 14.27381072837546
H-2A R/B                
1 27601U 02056E   19014.21797340  .00000031  00000-0  26161-4 0  9991
2 27601  98.2999  69.6840 0072561  26.4612  14.0346 14.31873527840246
